OPS 7218 (TRANSIT 16)   
1 02807U 67048A   26095.24838772  .00000156  00000+0  22605-3 0  9994
2 02807  89.6792 350.3077 0021060 142.9353 328.9054 13.50751132898083
OPS 4947 (TRANSIT 17)   
1 02965U 67092A   26095.30477661  .00000165  00000+0  22782-3 0  9997
2 02965  89.2591  15.8094 0045588 266.5005 219.8562 13.53484891886336
OPS 7034 (TRANSIT 18)   
1 03133U 68012A   26094.98622770  .00000140  00000+0  19711-3 0  9995
2 03133  90.0205 273.9241 0073171 201.1240 274.1617 13.51595449584488
NNSS 19 (TRANSIT 19)    
1 04507U 70067A   26095.28543403  .00000149  00000+0  19890-3 0  9990
2 04507  90.0110 234.6061 0170457 324.3935  34.5938 13.51345083737556
NNSS 20 (TRANSIT 20)    
1 06909U 73081A   26095.13797398  .00000272  00000+0  26456-3 0  9998
2 06909  89.8546 253.3240 0156576  98.1883 263.7072 13.71487314819152
TRANSAT                 
1 10457U 77106A   26095.18981575  .00000086  00000+0  12122-3 0  9998
2 10457  89.6427  74.5184 0024004 223.2135 146.7956 13.48962079382732
NOVA 1                  
1 12458U 81044A   26095.21669472  .00000053  00000+0  10343-3 0  9997
2 12458  89.8422  89.7137 0015236 145.0238 225.2209 13.23290689166873
NOVA 3                  
1 15362U 84110A   26095.18788340  .00000061  00000+0  12585-3 0  9992
2 15362  90.1144  81.8055 0032230  20.0251 351.0850 13.23061063  1980
OSCAR 30                
1 15935U 85066A   26095.26364803  .00000101  00000+0  16246-3 0  9995
2 15935  90.1523 101.6356 0169441 123.0344 250.0059 13.36100019979694
OSCAR 24                
1 15936U 85066B   26094.53196130  .00000100  00000+0  16267-3 0  9993
2 15936  90.1675  94.2312 0170264 131.5439 341.7551 13.35957253981491
POLAR BEAR              
1 17070U 86088A   26095.26118021  .00000147  00000+0  14028-3 0  9997
2 17070  89.6252 179.2756 0040971 136.1767 283.9798 13.75276292975391
OSCAR 27                
1 18361U 87080A   26094.92750851  .00000096  00000+0  14738-3 0  9990
2 18361  90.3661  83.4393 0101778 260.2648  98.6993 13.44929159890781
OSCAR 29                
1 18362U 87080B   26095.26372849  .00000079  00000+0  11975-3 0  9997
2 18362  90.3668  83.9190 0103416 283.0640  87.5492 13.44468832890355
OSCAR 23                
1 19070U 88033A   26095.25997061  .00000106  00000+0  20004-3 0  9995
2 19070  90.3325  19.9559 0187882 224.3783 303.4463 13.27807247837598
OSCAR 32                
1 19071U 88033B   26095.28923700  .00000080  00000+0  14511-3 0  9995
2 19071  90.3329  20.0947 0186564 210.9645 274.5747 13.27971217837728
NOVA 2                  
1 19223U 88052A   26095.20039654  .00000083  00000+0  17626-3 0  9996
2 19223  89.9804  78.0694 0032174  62.4862 308.4518 13.22951258824489
OSCAR 25                
1 19419U 88074A   26095.26591517  .00000131  00000+0  21138-3 0  9991
2 19419  90.0452  20.6550 0094236 282.9140 232.8671 13.42647424841632
