[{"OBJECT_NAME":"OPS 7218 (TRANSIT 16)","OBJECT_ID":"1967-048A","EPOCH":"2026-04-05T05:57:40.699008","MEAN_MOTION":13.50751132,"ECCENTRICITY":0.00210608,"INCLINATION":89.6792,"RA_OF_ASC_NODE":350.3077,"ARG_OF_PERICENTER":142.9353,"MEAN_ANOMALY":328.9054,"EPHEMERIS_TYPE":0,"CLASSIFICATION_TYPE":"U","NORAD_CAT_ID":2807,"ELEMENT_SET_NO":999,"REV_AT_EPOCH":89808,"BSTAR":0.00022604603,"MEAN_MOTION_DOT":1.56e-6,"MEAN_MOTION_DDOT":0},{"OBJECT_NAME":"OPS 4947 (TRANSIT 17)","OBJECT_ID":"1967-092A","EPOCH":"2026-04-05T07:18:52.699104","MEAN_MOTION":13.53484891,"ECCENTRICITY":0.00455885,"INCLINATION":89.2591,"RA_OF_ASC_NODE":15.8094,"ARG_OF_PERICENTER":266.5005,"MEAN_ANOMALY":219.8562,"EPHEMERIS_TYPE":0,"CLASSIFICATION_TYPE":"U","NORAD_CAT_ID":2965,"ELEMENT_SET_NO":999,"REV_AT_EPOCH":88633,"BSTAR":0.00022781577,"MEAN_MOTION_DOT":1.65e-6,"MEAN_MOTION_DDOT":0},{"OBJECT_NAME":"OPS 7034 (TRANSIT 18)","OBJECT_ID":"1968-012A","EPOCH":"2026-04-04T23:40:10.073280","MEAN_MOTION":13.51595449,"ECCENTRICITY":0.00731719,"INCLINATION":90.0205,"RA_OF_ASC_NODE":273.9241,"ARG_OF_PERICENTER":201.124,"MEAN_ANOMALY":274.1617,"EPHEMERIS_TYPE":0,"CLASSIFICATION_TYPE":"U","NORAD_CAT_ID":3133,"ELEMENT_SET_NO":999,"REV_AT_EPOCH":58448,"BSTAR":0.00019711484,"MEAN_MOTION_DOT":1.4e-6,"MEAN_MOTION_DDOT":0},{"OBJECT_NAME":"NNSS 19 (TRANSIT 19)","OBJECT_ID":"1970-067A","EPOCH":"2026-04-05T06:51:01.500192","MEAN_MOTION":13.51345083,"ECCENTRICITY":0.01704579,"INCLINATION":90.011,"RA_OF_ASC_NODE":234.6061,"ARG_OF_PERICENTER":324.3935,"MEAN_ANOMALY":34.5938,"EPHEMERIS_TYPE":0,"CLASSIFICATION_TYPE":"U","NORAD_CAT_ID":4507,"ELEMENT_SET_NO":999,"REV_AT_EPOCH":73755,"BSTAR":0.00019890261,"MEAN_MOTION_DOT":1.49e-6,"MEAN_MOTION_DDOT":0},{"OBJECT_NAME":"NNSS 20 (TRANSIT 20)","OBJECT_ID":"1973-081A","EPOCH":"2026-04-05T03:18:40.951872","MEAN_MOTION":13.71487314,"ECCENTRICITY":0.01565769,"INCLINATION":89.8546,"RA_OF_ASC_NODE":253.324,"ARG_OF_PERICENTER":98.1883,"MEAN_ANOMALY":263.7072,"EPHEMERIS_TYPE":0,"CLASSIFICATION_TYPE":"U","NORAD_CAT_ID":6909,"ELEMENT_SET_NO":999,"REV_AT_EPOCH":81915,"BSTAR":0.00026455899,"MEAN_MOTION_DOT":2.72e-6,"MEAN_MOTION_DDOT":0},{"OBJECT_NAME":"TRANSAT","OBJECT_ID":"1977-106A","EPOCH":"2026-04-05T04:33:20.080800","MEAN_MOTION":13.48962079,"ECCENTRICITY":0.00240049,"INCLINATION":89.6427,"RA_OF_ASC_NODE":74.5184,"ARG_OF_PERICENTER":223.2135,"MEAN_ANOMALY":146.7956,"EPHEMERIS_TYPE":0,"CLASSIFICATION_TYPE":"U","NORAD_CAT_ID":10457,"ELEMENT_SET_NO":999,"REV_AT_EPOCH":38273,"BSTAR":0.00012121775,"MEAN_MOTION_DOT":8.6e-7,"MEAN_MOTION_DDOT":0},{"OBJECT_NAME":"NOVA 1","OBJECT_ID":"1981-044A","EPOCH":"2026-04-05T05:12:02.423808","MEAN_MOTION":13.23290689,"ECCENTRICITY":0.00152366,"INCLINATION":89.8422,"RA_OF_ASC_NODE":89.7137,"ARG_OF_PERICENTER":145.0238,"MEAN_ANOMALY":225.2209,"EPHEMERIS_TYPE":0,"CLASSIFICATION_TYPE":"U","NORAD_CAT_ID":12458,"ELEMENT_SET_NO":999,"REV_AT_EPOCH":16687,"BSTAR":0.0001034336,"MEAN_MOTION_DOT":5.3e-7,"MEAN_MOTION_DDOT":0},{"OBJECT_NAME":"NOVA 3","OBJECT_ID":"1984-110A","EPOCH":"2026-04-05T04:30:33.125760","MEAN_MOTION":13.23061063,"ECCENTRICITY":0.00322306,"INCLINATION":90.1144,"RA_OF_ASC_NODE":81.8055,"ARG_OF_PERICENTER":20.0251,"MEAN_ANOMALY":351.085,"EPHEMERIS_TYPE":0,"CLASSIFICATION_TYPE":"U","NORAD_CAT_ID":15362,"ELEMENT_SET_NO":999,"REV_AT_EPOCH":198,"BSTAR":0.0001258478,"MEAN_MOTION_DOT":6.1e-7,"MEAN_MOTION_DDOT":0},{"OBJECT_NAME":"OSCAR 30","OBJECT_ID":"1985-066A","EPOCH":"2026-04-05T06:19:39.189792","MEAN_MOTION":13.36100019,"ECCENTRICITY":0.01694414,"INCLINATION":90.1523,"RA_OF_ASC_NODE":101.6356,"ARG_OF_PERICENTER":123.0344,"MEAN_ANOMALY":250.0059,"EPHEMERIS_TYPE":0,"CLASSIFICATION_TYPE":"U","NORAD_CAT_ID":15935,"ELEMENT_SET_NO":999,"REV_AT_EPOCH":97969,"BSTAR":0.00016246081,"MEAN_MOTION_DOT":1.01e-6,"MEAN_MOTION_DDOT":0},{"OBJECT_NAME":"OSCAR 24","OBJECT_ID":"1985-066B","EPOCH":"2026-04-04T12:46:01.456320","MEAN_MOTION":13.35957253,"ECCENTRICITY":0.01702643,"INCLINATION":90.1675,"RA_OF_ASC_NODE":94.2312,"ARG_OF_PERICENTER":131.5439,"MEAN_ANOMALY":341.7551,"EPHEMERIS_TYPE":0,"CLASSIFICATION_TYPE":"U","NORAD_CAT_ID":15936,"ELEMENT_SET_NO":999,"REV_AT_EPOCH":98149,"BSTAR":0.00016267239,"MEAN_MOTION_DOT":1.0e-6,"MEAN_MOTION_DDOT":0},{"OBJECT_NAME":"POLAR BEAR","OBJECT_ID":"1986-088A","EPOCH":"2026-04-05T06:16:05.970144","MEAN_MOTION":13.75276292,"ECCENTRICITY":0.00409711,"INCLINATION":89.6252,"RA_OF_ASC_NODE":179.2756,"ARG_OF_PERICENTER":136.1767,"MEAN_ANOMALY":283.9798,"EPHEMERIS_TYPE":0,"CLASSIFICATION_TYPE":"U","NORAD_CAT_ID":17070,"ELEMENT_SET_NO":999,"REV_AT_EPOCH":97539,"BSTAR":0.00014028149,"MEAN_MOTION_DOT":1.47e-6,"MEAN_MOTION_DDOT":0},{"OBJECT_NAME":"OSCAR 27","OBJECT_ID":"1987-080A","EPOCH":"2026-04-04T22:15:36.735264","MEAN_MOTION":13.44929159,"ECCENTRICITY":0.0101778,"INCLINATION":90.3661,"RA_OF_ASC_NODE":83.4393,"ARG_OF_PERICENTER":260.2648,"MEAN_ANOMALY":98.6993,"EPHEMERIS_TYPE":0,"CLASSIFICATION_TYPE":"U","NORAD_CAT_ID":18361,"ELEMENT_SET_NO":999,"REV_AT_EPOCH":89078,"BSTAR":0.00014737523,"MEAN_MOTION_DOT":9.6e-7,"MEAN_MOTION_DDOT":0},{"OBJECT_NAME":"OSCAR 29","OBJECT_ID":"1987-080B","EPOCH":"2026-04-05T06:19:46.141536","MEAN_MOTION":13.44468832,"ECCENTRICITY":0.01034166,"INCLINATION":90.3668,"RA_OF_ASC_NODE":83.919,"ARG_OF_PERICENTER":283.064,"MEAN_ANOMALY":87.5492,"EPHEMERIS_TYPE":0,"CLASSIFICATION_TYPE":"U","NORAD_CAT_ID":18362,"ELEMENT_SET_NO":999,"REV_AT_EPOCH":89035,"BSTAR":0.00011975234,"MEAN_MOTION_DOT":7.9e-7,"MEAN_MOTION_DDOT":0},{"OBJECT_NAME":"OSCAR 23","OBJECT_ID":"1988-033A","EPOCH":"2026-04-05T06:14:21.460704","MEAN_MOTION":13.27807247,"ECCENTRICITY":0.01878826,"INCLINATION":90.3325,"RA_OF_ASC_NODE":19.9559,"ARG_OF_PERICENTER":224.3783,"MEAN_ANOMALY":303.4463,"EPHEMERIS_TYPE":0,"CLASSIFICATION_TYPE":"U","NORAD_CAT_ID":19070,"ELEMENT_SET_NO":999,"REV_AT_EPOCH":83759,"BSTAR":0.00020004126,"MEAN_MOTION_DOT":1.06e-6,"MEAN_MOTION_DDOT":0},{"OBJECT_NAME":"OSCAR 32","OBJECT_ID":"1988-033B","EPOCH":"2026-04-05T06:56:30.076800","MEAN_MOTION":13.27971217,"ECCENTRICITY":0.01865649,"INCLINATION":90.3329,"RA_OF_ASC_NODE":20.0947,"ARG_OF_PERICENTER":210.9645,"MEAN_ANOMALY":274.5747,"EPHEMERIS_TYPE":0,"CLASSIFICATION_TYPE":"U","NORAD_CAT_ID":19071,"ELEMENT_SET_NO":999,"REV_AT_EPOCH":83772,"BSTAR":0.00014510626,"MEAN_MOTION_DOT":8.0e-7,"MEAN_MOTION_DDOT":0},{"OBJECT_NAME":"NOVA 2","OBJECT_ID":"1988-052A","EPOCH":"2026-04-05T04:48:34.261056","MEAN_MOTION":13.22951258,"ECCENTRICITY":0.00321747,"INCLINATION":89.9804,"RA_OF_ASC_NODE":78.0694,"ARG_OF_PERICENTER":62.4862,"MEAN_ANOMALY":308.4518,"EPHEMERIS_TYPE":0,"CLASSIFICATION_TYPE":"U","NORAD_CAT_ID":19223,"ELEMENT_SET_NO":999,"REV_AT_EPOCH":82448,"BSTAR":0.00017626442,"MEAN_MOTION_DOT":8.3e-7,"MEAN_MOTION_DDOT":0},{"OBJECT_NAME":"OSCAR 25","OBJECT_ID":"1988-074A","EPOCH":"2026-04-05T06:22:55.070688","MEAN_MOTION":13.42647424,"ECCENTRICITY":0.00942363,"INCLINATION":90.0452,"RA_OF_ASC_NODE":20.655,"ARG_OF_PERICENTER":282.914,"MEAN_ANOMALY":232.8671,"EPHEMERIS_TYPE":0,"CLASSIFICATION_TYPE":"U","NORAD_CAT_ID":19419,"ELEMENT_SET_NO":999,"REV_AT_EPOCH":84163,"BSTAR":0.00021137815,"MEAN_MOTION_DOT":1.31e-6,"MEAN_MOTION_DDOT":0}]
